TECHDEMOSAT-1 (TDS-1)   
1 40076U 14037H   26068.92236573  .00011104  00000+0  65800-3 0  9999
2 40076  98.3776  51.4583 0004745 234.8100 125.2683 15.11581991633227
STARLINK-5154           
1 54176U 22141V   26068.98101133 -.00000274  00000+0  84783-6 0  9990
2 54176  53.2197   2.6682 0001251  98.9186 261.1948 15.08815181185908
