[{"OBJECT_NAME":"TECHDEMOSAT-1 (TDS-1)","OBJECT_ID":"2014-037H","EPOCH":"2026-03-09T22:08:12.399936","MEAN_MOTION":15.11581991,"ECCENTRICITY":0.0004745,"INCLINATION":98.3776,"RA_OF_ASC_NODE":51.4583,"ARG_OF_PERICENTER":234.81,"MEAN_ANOMALY":125.2683,"EPHEMERIS_TYPE":0,"CLASSIFICATION_TYPE":"U","NORAD_CAT_ID":40076,"ELEMENT_SET_NO":999,"REV_AT_EPOCH":63322,"BSTAR":0.00065800271,"MEAN_MOTION_DOT":0.00011104,"MEAN_MOTION_DDOT":0},{"OBJECT_NAME":"STARLINK-5154","OBJECT_ID":"2022-141V","EPOCH":"2026-03-09T23:32:39.379776","MEAN_MOTION":15.08815181,"ECCENTRICITY":0.00012515,"INCLINATION":53.2197,"RA_OF_ASC_NODE":2.6682,"ARG_OF_PERICENTER":98.9186,"MEAN_ANOMALY":261.1948,"EPHEMERIS_TYPE":0,"CLASSIFICATION_TYPE":"U","NORAD_CAT_ID":54176,"ELEMENT_SET_NO":999,"REV_AT_EPOCH":18590,"BSTAR":8.4783e-7,"MEAN_MOTION_DOT":-2.74e-6,"MEAN_MOTION_DDOT":0}]
